{"type": "FeatureCollection", "features": [ {"type": "Feature", "properties": {"norad_id": 43058, "name": "GSAT0218 (GALILEO 22)", "group": "galileo", "lat": 1.4481153975654593, "lon": -132.07912905854874, "alt_km": 23217.66763351444, "timestamp": "2025-12-02T15:49:07.452283+00:00", "meta": {"OBJECT_NAME": "GSAT0218 (GALILEO 22)", "OBJECT_ID": "2017-079D", "EPOCH": "2025-11-30T07:26:14.163360", "MEAN_MOTION": 1.70473798, "ECCENTRICITY": 0.0002943, "INCLINATION": 55.1332, "RA_OF_ASC_NODE": 226.9759, "ARG_OF_PERICENTER": 303.6931, "MEAN_ANOMALY": 56.3534, "EPHEMERIS_TYPE": 0, "CLASSIFICATION_TYPE": "U", "NORAD_CAT_ID": 43058, "ELEMENT_SET_NO": 999, "REV_AT_EPOCH": 4962, "BSTAR": 0, "MEAN_MOTION_DOT": 2.9e-07, "MEAN_MOTION_DDOT": 0}, "tle": {"line1": "1 43058U 17079D   25334.30988615  .00000029  00000+0  00000+0 0  9990", "line2": "2 43058  55.1332 226.9759 0002943 303.6931  56.3534  1.70473798 49627"}}, "geometry": {"type": "Point", "coordinates": [-132.07912905854874, 1.4481153975654593]}}, {"type": "Feature", "properties": {"norad_id": 43564, "name": "GSAT0221 (GALILEO 25)", "group": "galileo", "lat": 47.63806996116564, "lon": 32.04700791530054, "alt_km": 23231.797690873416, "timestamp": "2025-12-02T15:49:07.452294+00:00", "meta": {"OBJECT_NAME": "GSAT0221 (GALILEO 25)", "OBJECT_ID": "2018-060A", "EPOCH": "2025-12-01T09:15:23.303232", "MEAN_MOTION": 1.70475711, "ECCENTRICITY": 0.00066191, "INCLINATION": 57.2301, "RA_OF_ASC_NODE": 347.1247, "ARG_OF_PERICENTER": 279.777, "MEAN_ANOMALY": 80.1905, "EPHEMERIS_TYPE": 0, "CLASSIFICATION_TYPE": "U", "NORAD_CAT_ID": 43564, "ELEMENT_SET_NO": 999, "REV_AT_EPOCH": 4579, "BSTAR": 0, "MEAN_MOTION_DOT": -5.9e-07, "MEAN_MOTION_DDOT": 0}, "tle": {"line1": "1 43564U 18060A   25335.38568638 -.00000059  00000+0  00000+0 0  9995", "line2": "2 43564  57.2301 347.1247 0006619 279.7770  80.1905  1.70475711 45792"}}, "geometry": {"type": "Point", "coordinates": [32.04700791530054, 47.63806996116564]}}, {"type": "Feature", "properties": {"norad_id": 43565, "name": "GSAT0222 (GALILEO 26)", "group": "galileo", "lat": -53.54624328244262, "lon": -73.58806811066063, "alt_km": 23211.596659016446, "timestamp": "2025-12-02T15:49:07.452306+00:00", "meta": {"OBJECT_NAME": "GSAT0222 (GALILEO 26)", "OBJECT_ID": "2018-060B", "EPOCH": "2025-11-29T06:12:28.687968", "MEAN_MOTION": 1.70475509, "ECCENTRICITY": 0.00061732, "INCLINATION": 57.2346, "RA_OF_ASC_NODE": 347.1853, "ARG_OF_PERICENTER": 259.4518, "MEAN_ANOMALY": 100.5223, "EPHEMERIS_TYPE": 0, "CLASSIFICATION_TYPE": "U", "NORAD_CAT_ID": 43565, "ELEMENT_SET_NO": 999, "REV_AT_EPOCH": 4580, "BSTAR": 0, "MEAN_MOTION_DOT": -5.5e-07, "MEAN_MOTION_DDOT": 0}, "tle": {"line1": "1 43565U 18060B   25333.25866537 -.00000055  00000+0  00000+0 0  9995", "line2": "2 43565  57.2346 347.1853 0006173 259.4518 100.5223  1.70475509 45802"}}, "geometry": {"type": "Point", "coordinates": [-73.58806811066063, -53.54624328244262]}}, {"type": "Feature", "properties": {"norad_id": 43566, "name": "GSAT0219 (GALILEO 23)", "group": "galileo", "lat": 23.943376121970715, "lon": 150.48190671107747, "alt_km": 23231.153636542153, "timestamp": "2025-12-02T15:49:07.452317+00:00", "meta": {"OBJECT_NAME": "GSAT0219 (GALILEO 23)", "OBJECT_ID": "2018-060C", "EPOCH": "2025-11-30T01:35:38.037408", "MEAN_MOTION": 1.70475682, "ECCENTRICITY": 0.00057799, "INCLINATION": 57.2334, "RA_OF_ASC_NODE": 347.165, "ARG_OF_PERICENTER": 285.7575, "MEAN_ANOMALY": 74.2225, "EPHEMERIS_TYPE": 0, "CLASSIFICATION_TYPE": "U", "NORAD_CAT_ID": 43566, "ELEMENT_SET_NO": 999, "REV_AT_EPOCH": 4579, "BSTAR": 0, "MEAN_MOTION_DOT": -5.6e-07, "MEAN_MOTION_DDOT": 0}, "tle": {"line1": "1 43566U 18060C   25334.06641247 -.00000056  00000+0  00000+0 0  9996", "line2": "2 43566  57.2334 347.1650 0005779 285.7575  74.2225  1.70475682 45790"}}, "geometry": {"type": "Point", "coordinates": [150.48190671107747, 23.943376121970715]}}, {"type": "Feature", "properties": {"norad_id": 43567, "name": "GSAT0220 (GALILEO 24)", "group": "galileo", "lat": 13.084267806640531, "lon": -4.286025661797896, "alt_km": 23222.04343370391, "timestamp": "2025-12-02T15:49:07.452329+00:00", "meta": {"OBJECT_NAME": "GSAT0220 (GALILEO 24)", "OBJECT_ID": "2018-060D", "EPOCH": "2025-11-30T20:58:25.885344", "MEAN_MOTION": 1.70475446, "ECCENTRICITY": 0.00061088, "INCLINATION": 57.233, "RA_OF_ASC_NODE": 347.1438, "ARG_OF_PERICENTER": 281.1334, "MEAN_ANOMALY": 78.841, "EPHEMERIS_TYPE": 0, "CLASSIFICATION_TYPE": "U", "NORAD_CAT_ID": 43567, "ELEMENT_SET_NO": 999, "REV_AT_EPOCH": 4579, "BSTAR": 0, "MEAN_MOTION_DOT": -5.8e-07, "MEAN_MOTION_DDOT": 0}, "tle": {"line1": "1 43567U 18060D   25334.87391071 -.00000058  00000+0  00000+0 0  9995", "line2": "2 43567  57.2330 347.1438 0006108 281.1334  78.8410  1.70475446 45795"}}, "geometry": {"type": "Point", "coordinates": [-4.286025661797896, 13.084267806640531]}}, {"type": "Feature", "properties": {"norad_id": 49809, "name": "GSAT0223 (GALILEO 27)", "group": "galileo", "lat": 53.78595553777314, "lon": 105.34436073388241, "alt_km": 23226.86383993593, "timestamp": "2025-12-02T15:49:07.452341+00:00", "meta": {"OBJECT_NAME": "GSAT0223 (GALILEO 27)", "OBJECT_ID": "2021-116A", "EPOCH": "2025-12-01T07:17:38.669856", "MEAN_MOTION": 1.70475545, "ECCENTRICITY": 0.00047526, "INCLINATION": 57.2221, "RA_OF_ASC_NODE": 347.0231, "ARG_OF_PERICENTER": 247.908, "MEAN_ANOMALY": 106.7158, "EPHEMERIS_TYPE": 0, "CLASSIFICATION_TYPE": "U", "NORAD_CAT_ID": 49809, "ELEMENT_SET_NO": 999, "REV_AT_EPOCH": 2480, "BSTAR": 0, "MEAN_MOTION_DOT": -5.9e-07, "MEAN_MOTION_DDOT": 0}, "tle": {"line1": "1 49809U 21116A   25335.30391979 -.00000059  00000+0  00000+0 0  9993", "line2": "2 49809  57.2221 347.0231 0004752 247.9080 106.7158  1.70475545 24809"}}, "geometry": {"type": "Point", "coordinates": [105.34436073388241, 53.78595553777314]}}, {"type": "Feature", "properties": {"norad_id": 49810, "name": "GSAT0224 (GALILEO 28)", "group": "galileo", "lat": -31.87785139459916, "lon": -169.38003413645785, "alt_km": 23215.86087340794, "timestamp": "2025-12-02T15:49:07.452352+00:00", "meta": {"OBJECT_NAME": "GSAT0224 (GALILEO 28)", "OBJECT_ID": "2021-116B", "EPOCH": "2025-11-22T08:02:15.403200", "MEAN_MOTION": 1.70476295, "ECCENTRICITY": 0.00038769, "INCLINATION": 57.2249, "RA_OF_ASC_NODE": 347.264, "ARG_OF_PERICENTER": 247.2257, "MEAN_ANOMALY": 115.5015, "EPHEMERIS_TYPE": 0, "CLASSIFICATION_TYPE": "U", "NORAD_CAT_ID": 49810, "ELEMENT_SET_NO": 999, "REV_AT_EPOCH": 2468, "BSTAR": 0, "MEAN_MOTION_DOT": -6.8e-07, "MEAN_MOTION_DDOT": 0}, "tle": {"line1": "1 49810U 21116B   25326.33490050 -.00000068  00000+0  00000+0 0  9998", "line2": "2 49810  57.2249 347.2640 0003876 247.2257 115.5015  1.70476295 24681"}}, "geometry": {"type": "Point", "coordinates": [-169.38003413645785, -31.87785139459916]}}, {"type": "Feature", "properties": {"norad_id": 59598, "name": "GSAT0225 (GALILEO 29)", "group": "galileo", "lat": -25.303609340814972, "lon": -54.104487446578275, "alt_km": 23220.54439306735, "timestamp": "2025-12-02T15:49:07.452363+00:00", "meta": {"OBJECT_NAME": "GSAT0225 (GALILEO 29)", "OBJECT_ID": "2024-079A", "EPOCH": "2025-12-01T03:29:20.871744", "MEAN_MOTION": 1.70474544, "ECCENTRICITY": 0.0002155, "INCLINATION": 54.9941, "RA_OF_ASC_NODE": 106.6197, "ARG_OF_PERICENTER": 171.5653, "MEAN_ANOMALY": 190.7741, "EPHEMERIS_TYPE": 0, "CLASSIFICATION_TYPE": "U", "NORAD_CAT_ID": 59598, "ELEMENT_SET_NO": 999, "REV_AT_EPOCH": 994, "BSTAR": 0, "MEAN_MOTION_DOT": 4.1e-07, "MEAN_MOTION_DDOT": 0}, "tle": {"line1": "1 59598U 24079A   25335.14538046  .00000041  00000+0  00000+0 0  9990", "line2": "2 59598  54.9941 106.6197 0002155 171.5653 190.7741  1.70474544  9948"}}, "geometry": {"type": "Point", "coordinates": [-54.104487446578275, -25.303609340814972]}}, {"type": "Feature", "properties": {"norad_id": 59600, "name": "GSAT0227 (GALILEO 30)", "group": "galileo", "lat": 54.01786244332924, "lon": -148.22365361119998, "alt_km": 23205.833823552362, "timestamp": "2025-12-02T15:49:07.452375+00:00", "meta": {"OBJECT_NAME": "GSAT0227 (GALILEO 30)", "OBJECT_ID": "2024-079C", "EPOCH": "2025-11-30T03:38:35.461248", "MEAN_MOTION": 1.70474636, "ECCENTRICITY": 0.00034867, "INCLINATION": 54.9888, "RA_OF_ASC_NODE": 106.6465, "ARG_OF_PERICENTER": 113.1426, "MEAN_ANOMALY": 246.8704, "EPHEMERIS_TYPE": 0, "CLASSIFICATION_TYPE": "U", "NORAD_CAT_ID": 59600, "ELEMENT_SET_NO": 999, "REV_AT_EPOCH": 997, "BSTAR": 0, "MEAN_MOTION_DOT": 4.8e-07, "MEAN_MOTION_DDOT": 0}, "tle": {"line1": "1 59600U 24079C   25334.15179932  .00000048  00000+0  00000+0 0  9996", "line2": "2 59600  54.9888 106.6465 0003486 113.1426 246.8704  1.70474636  9975"}}, "geometry": {"type": "Point", "coordinates": [-148.22365361119998, 54.01786244332924]}}, {"type": "Feature", "properties": {"norad_id": 61182, "name": "GSAT0232 (GALILEO 32)", "group": "galileo", "lat": -48.97946172451726, "lon": 173.87020187450736, "alt_km": 23226.291274133226, "timestamp": "2025-12-02T15:49:07.452387+00:00", "meta": {"OBJECT_NAME": "GSAT0232 (GALILEO 32)", "OBJECT_ID": "2024-167A", "EPOCH": "2025-11-29T15:16:36.414048", "MEAN_MOTION": 1.70473184, "ECCENTRICITY": 0.00022439, "INCLINATION": 55.2459, "RA_OF_ASC_NODE": 226.7912, "ARG_OF_PERICENTER": 216.1557, "MEAN_ANOMALY": 22.2275, "EPHEMERIS_TYPE": 0, "CLASSIFICATION_TYPE": "U", "NORAD_CAT_ID": 61182, "ELEMENT_SET_NO": 999, "REV_AT_EPOCH": 747, "BSTAR": 0, "MEAN_MOTION_DOT": 2.7e-07, "MEAN_MOTION_DDOT": 0}, "tle": {"line1": "1 61182U 24167A   25333.63653257  .00000027  00000+0  00000+0 0  9998", "line2": "2 61182  55.2459 226.7912 0002243 216.1557  22.2275  1.70473184  7470"}}, "geometry": {"type": "Point", "coordinates": [173.87020187450736, -48.97946172451726]}}]}